[{"OBJECT_NAME":"JAY-C","OBJECT_ID":"2025-009BM","EPOCH":"2026-03-09T21:49:25.741344","MEAN_MOTION":15.21616071,"ECCENTRICITY":0.00037153,"INCLINATION":97.4007,"RA_OF_ASC_NODE":149.4579,"ARG_OF_PERICENTER":347.8678,"MEAN_ANOMALY":12.2468,"EPHEMERIS_TYPE":0,"CLASSIFICATION_TYPE":"U","NORAD_CAT_ID":62668,"ELEMENT_SET_NO":999,"REV_AT_EPOCH":12127,"BSTAR":0.00023436914,"MEAN_MOTION_DOT":5.223e-5,"MEAN_MOTION_DDOT":0},{"OBJECT_NAME":"TRANSPORTER-13 OBJECT U","OBJECT_ID":"2025-052U","EPOCH":"2026-03-09T16:34:18.384384","MEAN_MOTION":15.22399222,"ECCENTRICITY":0.00064743,"INCLINATION":97.4037,"RA_OF_ASC_NODE":322.9372,"ARG_OF_PERICENTER":126.5652,"MEAN_ANOMALY":233.6181,"EPHEMERIS_TYPE":0,"CLASSIFICATION_TYPE":"U","NORAD_CAT_ID":63228,"ELEMENT_SET_NO":999,"REV_AT_EPOCH":5472,"BSTAR":0.0003303988,"MEAN_MOTION_DOT":7.569e-5,"MEAN_MOTION_DDOT":0}]
